STARLINK-5383           
1 54827U 22177H   25109.99564976  .00000516  00000+0  53258-4 0  9995
2 54827  43.0045  92.1679 0001258 273.8233  86.2465 15.02538119127288
STARLINK-5381           
1 54828U 22177J   25108.99515286  .00002463  00000+0  19732-3 0  9996
2 54828  43.0045  97.5602 0000992 246.3108 113.7631 15.02542613128112
STARLINK-5394           
1 54830U 22177L   25110.38564050  .00002228  00000+0  17995-3 0  9996
2 54830  43.0030  89.9300 0001240 278.7939  81.2763 15.02534336127349
STARLINK-5395           
1 54831U 22177M   25109.99895023  .00003171  00000+0  24958-3 0  9994
2 54831  43.0039  92.1912 0002739 305.2028  54.8558 15.02559632127280
STARLINK-5393           
1 54832U 22177N   25110.89341636 -.00008192  00000+0 -59175-3 0  9991
2 54832  43.0083  74.7272 0002771 294.7208  65.3346 15.02548828127561
STARLINK-5391           
1 54833U 22177P   25109.32866358  .00000002  00000+0  15175-4 0  9994
2 54833  42.9993  95.7562 0000305 258.8465 101.2343 15.02531546128165
STARLINK-5386           
1 54834U 22177Q   25110.38452605  .00000664  00000+0  64253-4 0  9994
2 54834  43.0042  89.9238 0001423 257.7686 102.2997 15.02533745127341
STARLINK-5389           
1 54835U 22177R   25109.32531944  .00000026  00000+0  16951-4 0  9995
2 54835  43.0020  95.7357 0000761 288.4461  71.6298 15.02532832127182
STARLINK-5384           
1 54836U 22177S   25110.91301765 -.00000039  00000+0  12221-4 0  9990
2 54836  43.0027  87.0032 0001246 261.8638  98.2063 15.02535599127429
STARLINK-5369           
1 54837U 22177T   25109.45161784  .00000850  00000+0  78007-4 0  9997
2 54837  43.0029  94.9606 0001102 249.9284 110.1440 15.02534356128188
STARLINK-5372           
1 54838U 22177U   25110.90638969  .00020957  00000+0  15653-2 0  9990
2 54838  43.0045  86.9564 0001811 245.4977 114.5676 15.02451063127426
STARLINK-5368           
1 54840U 22177W   25109.03610718  .00000006  00000+0  15517-4 0  9991
2 54840  42.9975  97.0003 0001586 282.1214  77.9450 15.02532084128124
STARLINK-4659           
1 54841U 22177X   25109.31421765  .00000149  00000+0  26124-4 0  9999
2 54841  43.0020  95.6543 0001425 278.3469  81.7212 15.02536746128164
STARLINK-5387           
1 54842U 22177Y   25110.42550922 -.00001282  00000+0 -79907-4 0  9990
2 54842  43.0022  89.3656 0000964 235.6294 124.4457 15.02512936127352
STARLINK-5304           
1 54843U 22177Z   25109.30756695 -.00001044  00000+0 -62233-4 0  9991
2 54843  43.0026  95.5997 0001089 269.6174  90.4544 15.02527845127182
STARLINK-5388           
1 54844U 22177AA  25110.02216291  .00000277  00000+0  35594-4 0  9991
2 54844  43.0036  91.4830 0001320 266.0854  93.9837 15.02539791127297
STARLINK-5082           
1 54845U 22177AB  25110.42880137  .00001946  00000+0  15909-3 0  9993
2 54845  43.0085  89.3944 0002798 274.4621  85.5902 15.02536495127354
STARLINK-5360           
1 54846U 22177AC  25109.02611888  .00001246  00000+0  10728-3 0  9990
2 54846  43.0031  96.9288 0001879 286.4441  73.6195 15.02539300128129
STARLINK-5061           
1 54847U 22177AD  25110.24986460 -.00001377  00000+0 -86900-4 0  9991
2 54847  43.0049  64.6168 0001380 245.1913 114.8786 15.02538011127627
STARLINK-5432           
1 54848U 22177AE  25110.35604152  .00000071  00000+0  20329-4 0  9990
2 54848  43.0050  77.5582 0001423 268.8727  91.1952 15.02535433127487
STARLINK-5434           
1 54849U 22177AF  25109.00848255  .00019308  00000+0  13698-2 0  9997
2 54849  43.0053  96.8000 0000766 264.6270  95.4486 15.04430853128129
STARLINK-5087           
1 54850U 22177AG  25110.88343579  .00002355  00000+0  18934-3 0  9999
2 54850  43.0005  74.6321 0001207 172.8726 187.2133 15.02538670127565
STARLINK-5084           
1 54851U 22177AH  25109.95607017  .00000754  00000+0  70878-4 0  9993
2 54851  43.0043  79.7131 0001071 282.2541  77.8182 15.02537825127427
STARLINK-5418           
1 54852U 22177AJ  25110.87673988  .00001844  00000+0  15149-3 0  9997
2 54852  43.0022  74.5814 0001271 256.1087 103.9614 15.02552030127564
STARLINK-5427           
1 54853U 22177AK  25110.34827167  .00002093  00000+0  16994-3 0  9996
2 54853  43.0040  77.4986 0001437 268.0224  92.0454 15.02540539127488
STARLINK-5419           
1 54854U 22177AL  25110.00699516  .00000119  00000+0  23837-4 0  9997
2 54854  43.0027  79.2373 0000857 272.3221  87.7523 15.02539516127430
STARLINK-5416           
1 54855U 22177AM  25110.87343398  .00000970  00000+0  86873-4 0  9991
2 54855  43.0044  74.5551 0001069 268.3487  91.7233 15.02542166127563
STARLINK-5086           
1 54856U 22177AN  25108.99207786  .00000874  00000+0  79781-4 0  9995
2 54856  43.0043  84.5207 0001485 272.6828  87.3845 15.02534570128269
STARLINK-5078           
1 54857U 22177AP  25110.39921213 -.00001767  00000+0 -11576-3 0  9992
2 54857  43.0031  77.0246 0001341 288.7494  71.3202 15.02535680127492
STARLINK-5407           
1 54858U 22177AQ  25110.40142659  .00001164  00000+0  10124-3 0  9991
2 54858  43.0047  77.0371 0001257 269.5329  90.5369 15.02542305127498
STARLINK-5409           
1 54859U 22177AR  25109.92609307  .00000086  00000+0  21446-4 0  9997
2 54859  43.0034  79.4872 0001308 266.1454  93.9238 15.02536297128403
STARLINK-5406           
1 54860U 22177AS  25109.25577015  .00001220  00000+0  10539-3 0  9996
2 54860  43.0026  83.0583 0001392 267.8097  92.2586 15.02533637128302
STARLINK-5400           
1 54861U 22177AT  25110.86788439  .00000598  00000+0  59312-4 0  9990
2 54861  43.0050  74.5129 0001438 270.4644  89.6033 15.02538875127563
STARLINK-5403           
1 54862U 22177AU  25109.96051334 -.00001333  00000+0 -83622-4 0  9998
2 54862  43.0029  79.7712 0001109 302.0708  58.0026 15.02528242127427
STARLINK-5405           
1 54863U 22177AV  25109.92943014 -.00000102  00000+0  75161-5 0  9992
2 54863  43.0032  79.5119 0000855 225.4282 134.6490 15.02535214127426
STARLINK-5359           
1 54864U 22177AW  25109.98369500 -.00000110  00000+0  69092-5 0  9996
2 54864  43.0043  79.0642 0001429 278.8564  81.2117 15.02531869127300
STARLINK-5411           
1 54865U 22177AX  25110.39809894  .00001260  00000+0  10835-3 0  9994
2 54865  43.0045  77.0104 0001617 284.3719  75.6944 15.02540284127370
STARLINK-5398           
1 54866U 22177AY  25110.90440308  .00002687  00000+0  21379-3 0  9992
2 54866  43.0043  73.9327 0001517 251.9514 108.1163 15.02552803127570
STARLINK-5396           
1 54867U 22177AZ  25109.32098395 -.00064198  00000+0 -47530-2 0  9995
2 54867  43.0027  82.6922 0002796 277.9077  82.1448 15.02752631128314
STARLINK-5379           
1 54868U 22177BA  25110.36814266  .00001902  00000+0  15587-3 0  9995
2 54868  43.0037  76.7848 0001315 265.0094  95.0599 15.02525143127360
STARLINK-5402           
1 54869U 22177BB  25110.37812140  .00000308  00000+0  37834-4 0  9995
2 54869  43.0038  76.8616 0001029 262.9728  97.0998 15.02534870127371
STARLINK-5401           
1 54870U 22177BC  25109.97148185  .00001051  00000+0  92849-4 0  9995
2 54870  43.0037  78.9677 0001383 268.5174  91.5509 15.02538055127312
STARLINK-5397           
1 54871U 22177BD  25110.37923124  .00000478  00000+0  50438-4 0  9996
2 54871  43.0040  76.8680 0001296 263.6883  96.3812 15.02537288127377
STARLINK-5390           
1 54872U 22177BE  25110.89440532  .00000340  00000+0  40250-4 0  9990
2 54872  43.0053  73.8810 0002524 272.6336  87.4217 15.02528850127456
STARLINK-5091           
1 54873U 22177BF  25110.89661991  .00000908  00000+0  82279-4 0  9992
2 54873  43.0039  73.8699 0001472 276.3934  83.6741 15.02541685127576
SHIYAN-10 02 (SY-10 02) 
1 54878U 22178A   25108.95646178  .00000881  00000+0  00000+0 0  9999
2 54878  63.9627  11.3326 7008567 268.9245  17.2787  2.00646125  8042
EROS C3                 
1 54880U 22179A   25110.88913248  .00009210  00000+0  50572-3 0  9991
2 54880 139.3392 113.1752 0005154  76.5785 283.5598 15.12312972128813
STAR VIBE               
1 55009U 23001A   25110.85920647  .00014226  00000+0  48617-3 0  9998
2 55009  97.3744 171.0633 0007773 178.1617 181.9654 15.30365994127392
MENUT                   
1 55010U 23001B   25110.80845107  .00009802  00000+0  35005-3 0  9993
2 55010  97.3815 171.5541 0008025 180.1512 179.9727 15.29023194127382
BRO-8                   
1 55011U 23001C   25110.87388245  .00018631  00000+0  68509-3 0  9991
2 55011  97.3812 170.8325 0009486 188.4909 171.6172 15.27895194127338
CONNECTA T1.2           
1 55012U 23001D   25109.14762958  .00015329  00000+0  47804-3 0  9993
2 55012  97.3826 172.3444 0009505 176.8948 183.2355 15.33281681127271
BIRKELAND               
1 55015U 23001G   25110.87156436  .00010400  00000+0  34620-3 0  9993
2 55015  97.3856 174.1483 0008804 166.8064 193.3410 15.31290032127541
KSF3-B                  
1 55019U 23001L   25110.81959500  .00049315  00000+0  96844-3 0  9997
2 55019  97.3743 180.5177 0009494 100.9403 259.2915 15.47116518127986
FLOCK 4Y-24             
1 55020U 23001M   25110.60588661  .00053115  00000+0  81363-3 0  9995
2 55020  97.3743 181.7698 0007429 154.1612 206.0014 15.54150520128078
FLOCK 4Y-22             
1 55022U 23001P   25110.45595168  .00040886  00000+0  66579-3 0  9993
2 55022  97.3680 181.4012 0007183 143.6724 216.5018 15.52512855128049
FLOCK 4Y-18             
1 55023U 23001Q   25110.13427219  .00046656  00000+0  73930-3 0  9990
2 55023  97.3751 181.6542 0006799 160.5925 199.5588 15.53247741127997
FLOCK 4Y-14             
1 55024U 23001R   25110.14358520  .00047594  00000+0  73154-3 0  9990
2 55024  97.3681 181.3863 0006677 154.9803 205.1775 15.54087459128004
FLOCK 4Y-30             
1 55025U 23001S   25109.77439550  .00063252  00000+0  86247-3 0  9997
2 55025  97.3771 181.9233 0006135 151.8924 208.2663 15.57290450127987
FLOCK 4Y-25             
1 55027U 23001U   25110.14260523  .00042282  00000+0  67475-3 0  9996
2 55027  97.3681 180.9828 0007452 150.3782 209.7894 15.53066660128003
